ONEWEB-0208             
1 48243U 21031AK  26006.25743827  .00000128  00000+0  31057-3 0  9999
2 48243  87.9017 321.9703 0001421  80.8900 279.2391 13.14502914227030
ONEWEB-0200             
1 48244U 21031AL  26006.29708016 -.00000033  00000+0 -12481-3 0  9992
2 48244  87.9017 321.9518 0001629  81.4445 278.6869 13.14503755226964
ONEWEB-0217             
1 48245U 21031AM  26006.31293336  .00000231  00000+0  58901-3 0  9995
2 48245  87.9027 321.9449 0001414  77.3808 282.7480 13.14502821226911
ONEWEB-0211             
1 48767U 21045A   26006.26540508  .00000028  00000+0  41258-4 0  9991
2 48767  87.9018 291.4302 0001317  63.8222 296.3044 13.16138571223149
ONEWEB-0223             
1 48768U 21045B   26006.26721640 -.00000046  00000+0 -15724-3 0  9990
2 48768  87.9017 291.4984 0001538  58.0077 302.1203 13.15548451223115
ONEWEB-0230             
1 48769U 21045C   26006.31475668  .00003717  00000+0  98373-2 0  9999
2 48769  87.9007 291.5172 0002180  76.5328 283.6046 13.15530753223386
ONEWEB-0237             
1 48770U 21045D   26006.30366145  .00000172  00000+0  42416-3 0  9999
2 48770  87.9009 291.5202 0001666  64.3070 295.8233 13.15548786223109
ONEWEB-0235             
1 48771U 21045E   26006.27830697 -.00001531  00000+0 -41021-2 0  9996
2 48771  87.9008 291.4987 0001575  51.9494 308.1779 13.15556542223099
ONEWEB-0242             
1 48772U 21045F   26006.27197166 -.00000043  00000+0 -14867-3 0  9990
2 48772  87.9019 291.4927 0001790  69.0370 291.0952 13.15548063223135
ONEWEB-0241             
1 48773U 21045G   26006.25930201  .00000082  00000+0  18263-3 0  9999
2 48773  87.9008 291.5307 0001354  63.7893 296.3376 13.15547903223044
ONEWEB-0243             
1 48774U 21045H   26006.29099580  .00000077  00000+0  17058-3 0  9995
2 48774  87.9010 291.5346 0001763  60.3029 299.8277 13.15552254223075
ONEWEB-0222             
1 48775U 21045J   26006.27433775 -.00000033  00000+0 -12214-3 0  9995
2 48775  87.9019 291.4930 0001575  68.0272 292.1025 13.15549804223118
ONEWEB-0244             
1 48776U 21045K   26006.30049006  .00000175  00000+0  43097-3 0  9998
2 48776  87.9019 291.4762 0001657  68.4045 291.7262 13.15548579223683
ONEWEB-0247             
1 48777U 21045L   26006.29730499  .00000138  00000+0  33295-3 0  9998
2 48777  87.9005 291.5292 0001969  46.4388 313.6905 13.15553247223125
ONEWEB-0245             
1 48778U 21045M   26006.29257387  .00000132  00000+0  31788-3 0  9998
2 48778  87.9012 291.4959 0001427  71.9769 288.1517 13.15548616223093
ONEWEB-0229             
1 48779U 21045N   26006.28781872  .00000090  00000+0  20465-3 0  9992
2 48779  87.9012 291.4945 0001752  69.9954 290.1365 13.15548579223129
ONEWEB-0228             
1 48780U 21045P   26006.16911311  .00000198  00000+0  49268-3 0  9995
2 48780  87.9016 291.5048 0001637  68.7179 291.4126 13.15549463223029
ONEWEB-0232             
1 48781U 21045Q   26006.29573632  .00000157  00000+0  38221-3 0  9992
2 48781  87.9024 291.4737 0001613  72.3110 287.8196 13.15550251223363
ONEWEB-0231             
1 48782U 21045R   26006.27354207 -.00000067  00000+0 -21324-3 0  9994
2 48782  87.9008 291.5158 0001689  64.5707 295.5598 13.15547795223059
ONEWEB-0234             
1 48783U 21045S   26006.31143603  .00000217  00000+0  54275-3 0  9992
2 48783  87.9014 291.4836 0001200 106.3526 253.7736 13.15549940223191
ONEWEB-0238             
1 48784U 21045T   26006.31172577  .00000182  00000+0  45039-3 0  9994
2 48784  87.9013 291.4765 0001364  88.6888 271.4399 13.15549328223097
ONEWEB-0240             
1 48785U 21045U   26006.25691416  .00000091  00000+0  20839-3 0  9996
2 48785  87.9022 291.4850 0001379  65.8103 294.3171 13.15547597223117
ONEWEB-0246             
1 48786U 21045V   26006.25136794  .00000163  00000+0  39974-3 0  9990
2 48786  87.9020 291.4962 0001772  70.4390 289.6932 13.15547954222980
ONEWEB-0210             
1 48787U 21045W   26006.30207517  .00000209  00000+0  52217-3 0  9995
2 48787  87.9016 291.4840 0001973  55.4586 304.6730 13.15548256223031
ONEWEB-0214             
1 48788U 21045X   26006.31078760  .00000293  00000+0  74389-3 0  9990
2 48788  87.9021 291.4754 0001941  65.9333 294.2000 13.15550241223001
ONEWEB-0221             
1 48789U 21045Y   26006.16580913  .00000185  00000+0  45638-3 0  9997
2 48789  87.9017 291.5172 0001561  66.7368 293.3927 13.15548009223071
ONEWEB-0213             
1 48790U 21045Z   26006.30682978  .00000224  00000+0  56183-3 0  9990
2 48790  87.9007 291.4949 0001691  63.2882 296.8421 13.15547686223156
ONEWEB-0212             
1 48791U 21045AA  26006.28385794  .00000026  00000+0  33979-4 0  9993
2 48791  87.9015 291.4919 0001616  75.0476 285.0833 13.15549422223146
ONEWEB-0227             
1 48792U 21045AB  26006.28306396  .00000086  00000+0  19485-3 0  9996
2 48792  87.9001 291.4997 0001582  72.0241 288.1062 13.15548741223092
ONEWEB-0226             
1 48793U 21045AC  26006.27671838 -.00000068  00000+0 -21366-3 0  9995
2 48793  87.9008 291.5108 0001792  62.9354 297.1959 13.15549752223066
ONEWEB-0224             
1 48794U 21045AD  26006.31633133  .00000196  00000+0  48547-3 0  9997
2 48794  87.9010 291.5378 0000709  66.9807 293.1398 13.15549865222992
ONEWEB-0233             
1 48795U 21045AE  26006.24489169  .00000312  00000+0  79355-3 0  9999
2 48795  87.9008 291.5624 0001492  63.5059 296.6224 13.15548026223003
ONEWEB-0190             
1 48796U 21045AF  26006.30839192  .00000163  00000+0  39803-3 0  9990
2 48796  87.9008 291.5110 0001660  46.7561 313.3708 13.15550955223088
ONEWEB-0236             
1 48797U 21045AG  26006.24978303  .00000225  00000+0  56348-3 0  9994
2 48797  87.9008 291.5342 0001615  77.8669 282.2642 13.15548025222962
ONEWEB-0248             
1 48798U 21045AH  26006.26246925  .00000027  00000+0  38651-4 0  9993
2 48798  87.9017 291.4980 0001255  57.6328 302.4923 13.15548097223123
ONEWEB-0225             
1 48799U 21045AJ  26006.28464934  .00000073  00000+0  16069-3 0  9997
2 48799  87.9007 291.5154 0001645  52.0742 308.0537 13.15548085223130
ONEWEB-0215             
1 48800U 21045AK  26006.25453625  .00000123  00000+0  29299-3 0  9997
2 48800  87.9023 291.4862 0001504  47.9595 312.1663 13.15547600223003
ONEWEB-0216             
1 48801U 21045AL  26006.26404718  .00000018  00000+0  14732-4 0  9998
2 48801  87.9010 291.5114 0001874  72.0787 288.0547 13.15547969223014
ONEWEB-0239             
1 48802U 21045AM  26006.26880108 -.00000006  00000+0 -49683-4 0  9992
2 48802  87.9007 291.5247 0001176  48.3578 311.7653 13.15548438223055
ONEWEB-0249             
1 48967U 21060A   26006.25457371 -.00000060  00000+0 -19003-3 0  9994
2 48967  87.9041 261.0210 0001460  70.9298 289.1991 13.16594019218305
ONEWEB-0250             
1 48968U 21060B   26006.12668593  .00000090  00000+0  17459-3 0  9995
2 48968  87.9037 259.3324 0000658 110.4210 249.6996 13.25822401218742
ONEWEB-0252             
1 48970U 21060D   26006.13423217  .00000069  00000+0  14762-3 0  9991
2 48970  87.9040 261.0383 0001689  70.3240 289.8073 13.16596166218339
ONEWEB-0253             
1 48971U 21060E   26006.19916389  .00000075  00000+0  16371-3 0  9990
2 48971  87.9040 261.0304 0001444  69.2011 290.9274 13.16594228218271
ONEWEB-0254             
1 48972U 21060F   26006.13265940  .00000113  00000+0  26265-3 0  9991
2 48972  87.9045 261.0363 0001255  63.9979 296.1281 13.16595074218261
ONEWEB-0255             
1 48973U 21060G   26006.17066525  .00000136  00000+0  32178-3 0  9999
2 48973  87.9036 261.0420 0001337  69.0489 291.0785 13.16594674218347
ONEWEB-0256             
1 48974U 21060H   26006.19676770 -.00000250  00000+0 -68727-3 0  9999
2 48974  87.9031 261.0442 0001633  75.3669 284.7643 13.16593979218312
ONEWEB-0257             
1 48975U 21060J   26006.15324131  .00000178  00000+0  43243-3 0  9990
2 48975  87.9042 261.0339 0001496  69.2640 290.8651 13.16594106218262
ONEWEB-0258             
1 48976U 21060K   26006.15482643  .00000057  00000+0  11655-3 0  9992
2 48976  87.9038 261.0472 0001387  78.6955 281.4332 13.16594274218277
ONEWEB-0259             
1 48977U 21060L   26006.14849144  .00000214  00000+0  52578-3 0  9999
2 48977  87.9047 261.0441 0001337  74.7446 285.3832 13.16594832218303
ONEWEB-0260             
1 48978U 21060M   26006.13977085  .00000188  00000+0  45816-3 0  9992
2 48978  87.9030 261.0572 0001879  74.0170 286.1168 13.16596903218288
ONEWEB-0261             
1 48979U 21060N   26006.26169106 -.00000060  00000+0 -19183-3 0  9993
2 48979  87.9029 261.0353 0001536  60.0346 300.0937 13.16595827218356
ONEWEB-0262             
1 48980U 21060P   26006.16590775  .00000115  00000+0  26693-3 0  9997
2 48980  87.9043 261.0298 0001197  72.4135 287.7126 13.16593815218309
ONEWEB-0263             
1 48981U 21060Q   26006.19757308  .00000037  00000+0  62154-4 0  9994
2 48981  87.9034 261.0370 0001410  59.9029 300.2242 13.16594132218270
ONEWEB-0264             
1 48982U 21060R   26006.15878348  .00000108  00000+0  24780-3 0  9990
2 48982  87.9040 261.0473 0001652  68.8720 291.2587 13.16595008218271
ONEWEB-0266             
1 48984U 21060T   26006.25615339  .00000031  00000+0  47521-4 0  9996
2 48984  87.9039 261.0164 0001348  78.1528 281.9754 13.16594682218279
ONEWEB-0267             
1 48985U 21060U   26006.26724093 -.00000023  00000+0 -92594-4 0  9999
2 48985  87.9036 261.0123 0001555  66.8777 293.2518 13.16594494218288
ONEWEB-0268             
1 48986U 21060V   26006.15957179  .00000186  00000+0  45308-3 0  9999
2 48986  87.9041 261.0423 0001574  74.9604 285.1701 13.16593806218536
ONEWEB-0269             
1 48987U 21060W   26006.14057936  .00000080  00000+0  17544-3 0  9995
2 48987  87.9033 261.0657 0001647  81.7813 278.3504 13.16595283218307
ONEWEB-0270             
1 48988U 21060X   26005.70201782  .00000098  00000+0  22320-3 0  9994
2 48988  87.9040 261.1356 0001290  59.3926 300.7332 13.16594697218287
